{
    "links": {
        "self": "http://www.neowsapp.com/rest/v1/neo/3463174?api_key=iIulBulltgU6a56xZRHN4H3l9WmuAYTsLGpBGhQ2"
    },
    "id": "3463174",
    "neo_reference_id": "3463174",
    "name": "(2009 LV2)",
    "designation": "2009 LV2",
    "nasa_jpl_url": "http://ssd.jpl.nasa.gov/sbdb.cgi?sstr=3463174",
    "absolute_magnitude_h": 22.4,
    "estimated_diameter": {
        "kilometers": {
            "estimated_diameter_min": 0.0880146521,
            "estimated_diameter_max": 0.1968067451
        },
        "meters": {
            "estimated_diameter_min": 88.0146520901,
            "estimated_diameter_max": 196.8067450894
        },
        "miles": {
            "estimated_diameter_min": 0.0546897524,
            "estimated_diameter_max": 0.122290004
        },
        "feet": {
            "estimated_diameter_min": 288.7619911632,
            "estimated_diameter_max": 645.6914415591
        }
    },
    "is_potentially_hazardous_asteroid": false,
    "close_approach_data": [
        {
            "close_approach_date": "1978-04-15",
            "close_approach_date_full": "1978-Apr-15 00:04",
            "epoch_date_close_approach": 261446640000,
            "relative_velocity": {
                "kilometers_per_second": "27.9777373111",
                "kilometers_per_hour": "100719.8543200673",
                "miles_per_hour": "62583.4005912662"
            },
            "miss_distance": {
                "astronomical": "0.099024546",
                "lunar": "38.520548394",
                "kilometers": "14813861.15931702",
                "miles": "9204906.487214076"
            },
            "orbiting_body": "Venus"
        },
        {
            "close_approach_date": "2009-06-18",
            "close_approach_date_full": "2009-Jun-18 11:45",
            "epoch_date_close_approach": 1245325500000,
            "relative_velocity": {
                "kilometers_per_second": "20.4680582948",
                "kilometers_per_hour": "73685.0098614373",
                "miles_per_hour": "45784.9995997359"
            },
            "miss_distance": {
                "astronomical": "0.1712845583",
                "lunar": "66.6296931787",
                "kilometers": "25623805.085570821",
                "miles": "15921894.1721304898"
            },
            "orbiting_body": "Earth"
        }
    ],
    "orbital_data": {
        "orbit_id": "10",
        "orbit_determination_date": "2017-04-06 09:00:26",
        "first_observation_date": "2009-06-15",
        "last_observation_date": "2009-06-23",
        "data_arc_in_days": 8,
        "observations_used": 23,
        "orbit_uncertainty": "9",
        "minimum_orbit_intersection": ".16328",
        "jupiter_tisserand_invariant": "4.229",
        "epoch_osculation": "2454999.5",
        "eccentricity": ".5954118543946432",
        "semi_major_axis": "1.507219709067",
        "inclination": "26.04479868034316",
        "ascending_node_longitude": "249.3835464821882",
        "orbital_period": "675.8701616887823",
        "perihelion_distance": ".6098032271112628",
        "perihelion_argument": "118.7223897068721",
        "aphelion_distance": "2.404636191022736",
        "perihelion_time": "2455063.118991326226",
        "mean_anomaly": "326.1135552718964",
        "mean_motion": ".5326466833518374",
        "equinox": "J2000",
        "orbit_class": {
            "orbit_class_type": "APO",
            "orbit_class_description": "Near-Earth asteroid orbits which cross the Earth’s orbit similar to that of 1862 Apollo",
            "orbit_class_range": "a (semi-major axis) > 1.0 AU; q (perihelion) < 1.017 AU"
        }
    },
    "is_sentry_object": false
}